{"type": "FeatureCollection", "features": [{"type": "Feature", "properties": {"norad_id": 25590, "name": "COSMOS 2361", "group": "musson", "lat": -35.242810853033625, "lon": 162.88251837880267, "alt_km": 974.2388964579422, "timestamp": "2025-12-21T03:56:51.106682+00:00", "meta": {"OBJECT_NAME": "COSMOS 2361", "OBJECT_ID": "1998-076A", "EPOCH": "2025-12-20T09:56:59.199648", "MEAN_MOTION": 13.73218386, "ECCENTRICITY": 0.00301672, "INCLINATION": 82.9341, "RA_OF_ASC_NODE": 338.4096, "ARG_OF_PERICENTER": 243.3487, "MEAN_ANOMALY": 227.1143, "EPHEMERIS_TYPE": 0, "CLASSIFICATION_TYPE": "U", "NORAD_CAT_ID": 25590, "ELEMENT_SET_NO": 999, "REV_AT_EPOCH": 35216, "BSTAR": 4.0233293e-05, "MEAN_MOTION_DOT": 5.2e-07, "MEAN_MOTION_DDOT": 0}, "tle": {"line1": "1 25590U 98076A   25354.41457407  .00000052  00000+0  40233-4 0  9994", "line2": "2 25590  82.9341 338.4096 0030167 243.3487 227.1143 13.73218386352160"}}, "geometry": {"type": "Point", "coordinates": [162.88251837880267, -35.242810853033625]}}, {"type": "Feature", "properties": {"norad_id": 26818, "name": "COSMOS 2378", "group": "musson", "lat": -43.175175984481996, "lon": -13.2116203971995, "alt_km": 1008.5257461192659, "timestamp": "2025-12-21T03:56:51.106701+00:00", "meta": {"OBJECT_NAME": "COSMOS 2378", "OBJECT_ID": "2001-023A", "EPOCH": "2025-12-20T13:00:00.679392", "MEAN_MOTION": 13.74142617, "ECCENTRICITY": 0.0032887, "INCLINATION": 82.927, "RA_OF_ASC_NODE": 353.9394, "ARG_OF_PERICENTER": 182.9533, "MEAN_ANOMALY": 294.0488, "EPHEMERIS_TYPE": 0, "CLASSIFICATION_TYPE": "U", "NORAD_CAT_ID": 26818, "ELEMENT_SET_NO": 999, "REV_AT_EPOCH": 23030, "BSTAR": 2.7994e-05, "MEAN_MOTION_DOT": 4.2e-07, "MEAN_MOTION_DDOT": 0}, "tle": {"line1": "1 26818U 01023A   25354.54167453  .00000042  00000+0  27994-4 0  9995", "line2": "2 26818  82.9270 353.9394 0032887 182.9533 294.0488 13.74142617230309"}}, "geometry": {"type": "Point", "coordinates": [-13.2116203971995, -43.175175984481996]}}, {"type": "Feature", "properties": {"norad_id": 27436, "name": "COSMOS 2389", "group": "musson", "lat": -14.040652875860436, "lon": 122.52131083891904, "alt_km": 1017.5133777900792, "timestamp": "2025-12-21T03:56:51.106712+00:00", "meta": {"OBJECT_NAME": "COSMOS 2389", "OBJECT_ID": "2002-026A", "EPOCH": "2025-12-20T20:09:43.164288", "MEAN_MOTION": 13.75155438, "ECCENTRICITY": 0.0047316, "INCLINATION": 82.9509, "RA_OF_ASC_NODE": 300.9882, "ARG_OF_PERICENTER": 38.6814, "MEAN_ANOMALY": 350.0913, "EPHEMERIS_TYPE": 0, "CLASSIFICATION_TYPE": "U", "NORAD_CAT_ID": 27436, "ELEMENT_SET_NO": 999, "REV_AT_EPOCH": 18260, "BSTAR": 3.119e-05, "MEAN_MOTION_DOT": 4.5e-07, "MEAN_MOTION_DDOT": 0}, "tle": {"line1": "1 27436U 02026A   25354.84008292  .00000045  00000+0  31190-4 0  9990", "line2": "2 27436  82.9509 300.9882 0047316  38.6814 350.0913 13.75155438182608"}}, "geometry": {"type": "Point", "coordinates": [122.52131083891904, -14.040652875860436]}}, {"type": "Feature", "properties": {"norad_id": 27818, "name": "COSMOS 2398", "group": "musson", "lat": 61.5818151013326, "lon": -80.28670455844232, "alt_km": 963.483683083412, "timestamp": "2025-12-21T03:56:51.106722+00:00", "meta": {"OBJECT_NAME": "COSMOS 2398", "OBJECT_ID": "2003-023A", "EPOCH": "2025-12-20T19:09:41.681376", "MEAN_MOTION": 13.72386523, "ECCENTRICITY": 0.003273, "INCLINATION": 82.9484, "RA_OF_ASC_NODE": 266.76, "ARG_OF_PERICENTER": 90.3101, "MEAN_ANOMALY": 324.6671, "EPHEMERIS_TYPE": 0, "CLASSIFICATION_TYPE": "U", "NORAD_CAT_ID": 27818, "ELEMENT_SET_NO": 999, "REV_AT_EPOCH": 12927, "BSTAR": 5.4714e-05, "MEAN_MOTION_DOT": 6.6e-07, "MEAN_MOTION_DDOT": 0}, "tle": {"line1": "1 27818U 03023A   25354.79839909  .00000066  00000+0  54714-4 0  9993", "line2": "2 27818  82.9484 266.7600 0032730  90.3101 324.6671 13.72386523129279"}}, "geometry": {"type": "Point", "coordinates": [-80.28670455844232, 61.5818151013326]}}, {"type": "Feature", "properties": {"norad_id": 28380, "name": "COSMOS 2407", "group": "musson", "lat": 16.96074640621049, "lon": -151.18518742108319, "alt_km": 949.0003995618581, "timestamp": "2025-12-21T03:56:51.106732+00:00", "meta": {"OBJECT_NAME": "COSMOS 2407", "OBJECT_ID": "2004-028A", "EPOCH": "2025-12-20T15:56:31.835040", "MEAN_MOTION": 13.76314588, "ECCENTRICITY": 0.0039963, "INCLINATION": 82.9598, "RA_OF_ASC_NODE": 207.0254, "ARG_OF_PERICENTER": 33.239, "MEAN_ANOMALY": 27.0054, "EPHEMERIS_TYPE": 0, "CLASSIFICATION_TYPE": "U", "NORAD_CAT_ID": 28380, "ELEMENT_SET_NO": 999, "REV_AT_EPOCH": 7532, "BSTAR": 5.6347e-05, "MEAN_MOTION_DOT": 7.1e-07, "MEAN_MOTION_DDOT": 0}, "tle": {"line1": "1 28380U 04028A   25354.66425735  .00000071  00000+0  56347-4 0  9998", "line2": "2 28380  82.9598 207.0254 0039963  33.2390  27.0054 13.76314588 75325"}}, "geometry": {"type": "Point", "coordinates": [-151.18518742108319, 16.96074640621049]}}, {"type": "Feature", "properties": {"norad_id": 28521, "name": "COSMOS 2414", "group": "musson", "lat": -82.67020717601304, "lon": 104.0975134412601, "alt_km": 970.8834711118761, "timestamp": "2025-12-21T03:56:51.106742+00:00", "meta": {"OBJECT_NAME": "COSMOS 2414", "OBJECT_ID": "2005-002A", "EPOCH": "2025-12-20T17:59:33.806112", "MEAN_MOTION": 13.87903967, "ECCENTRICITY": 0.004128, "INCLINATION": 82.9489, "RA_OF_ASC_NODE": 178.6028, "ARG_OF_PERICENTER": 117.4247, "MEAN_ANOMALY": 243.1124, "EPHEMERIS_TYPE": 0, "CLASSIFICATION_TYPE": "U", "NORAD_CAT_ID": 28521, "ELEMENT_SET_NO": 999, "REV_AT_EPOCH": 5906, "BSTAR": 3.916e-05, "MEAN_MOTION_DOT": 6.3e-07, "MEAN_MOTION_DDOT": 0}, "tle": {"line1": "1 28521U 05002A   25354.74969683  .00000063  00000+0  39160-4 0  9997", "line2": "2 28521  82.9489 178.6028 0041280 117.4247 243.1124 13.87903967 59063"}}, "geometry": {"type": "Point", "coordinates": [104.0975134412601, -82.67020717601304]}}, {"type": "Feature", "properties": {"norad_id": 32052, "name": "COSMOS 2429", "group": "musson", "lat": 19.275280863684056, "lon": -20.432691479208874, "alt_km": 952.791868588979, "timestamp": "2025-12-21T03:56:51.106752+00:00", "meta": {"OBJECT_NAME": "COSMOS 2429", "OBJECT_ID": "2007-038A", "EPOCH": "2025-12-20T15:37:49.353024", "MEAN_MOTION": 13.75150175, "ECCENTRICITY": 0.003879, "INCLINATION": 82.9806, "RA_OF_ASC_NODE": 337.4761, "ARG_OF_PERICENTER": 16.1605, "MEAN_ANOMALY": 344.0778, "EPHEMERIS_TYPE": 0, "CLASSIFICATION_TYPE": "U", "NORAD_CAT_ID": 32052, "ELEMENT_SET_NO": 999, "REV_AT_EPOCH": 91711, "BSTAR": 3.5983e-05, "MEAN_MOTION_DOT": 5e-07, "MEAN_MOTION_DDOT": 0}, "tle": {"line1": "1 32052U 07038A   25354.65126566  .00000050  00000+0  35983-4 0  9992", "line2": "2 32052  82.9806 337.4761 0038790  16.1605 344.0778 13.75150175917111"}}, "geometry": {"type": "Point", "coordinates": [-20.432691479208874, 19.275280863684056]}}, {"type": "Feature", "properties": {"norad_id": 35635, "name": "COSMOS 2454", "group": "musson", "lat": 22.959388179462945, "lon": 165.26099258856445, "alt_km": 915.3524935491978, "timestamp": "2025-12-21T03:56:51.106761+00:00", "meta": {"OBJECT_NAME": "COSMOS 2454", "OBJECT_ID": "2009-039A", "EPOCH": "2025-12-20T19:45:23.373216", "MEAN_MOTION": 13.89929603, "ECCENTRICITY": 0.0020214, "INCLINATION": 82.9556, "RA_OF_ASC_NODE": 162.5171, "ARG_OF_PERICENTER": 52.0641, "MEAN_ANOMALY": 64.5232, "EPHEMERIS_TYPE": 0, "CLASSIFICATION_TYPE": "U", "NORAD_CAT_ID": 35635, "ELEMENT_SET_NO": 999, "REV_AT_EPOCH": 83262, "BSTAR": 3.5232e-05, "MEAN_MOTION_DOT": 5.9e-07, "MEAN_MOTION_DDOT": 0}, "tle": {"line1": "1 35635U 09039A   25354.82318719  .00000059  00000+0  35232-4 0  9993", "line2": "2 35635  82.9556 162.5171 0020214  52.0641  64.5232 13.89929603832622"}}, "geometry": {"type": "Point", "coordinates": [165.26099258856445, 22.959388179462945]}}, {"type": "Feature", "properties": {"norad_id": 36519, "name": "COSMOS 2463", "group": "musson", "lat": -49.267006608682706, "lon": -151.2290025146318, "alt_km": 979.2763722359487, "timestamp": "2025-12-21T03:56:51.106770+00:00", "meta": {"OBJECT_NAME": "COSMOS 2463", "OBJECT_ID": "2010-017A", "EPOCH": "2025-12-20T20:40:15.862944", "MEAN_MOTION": 13.71649799, "ECCENTRICITY": 0.0034745, "INCLINATION": 82.9604, "RA_OF_ASC_NODE": 20.7441, "ARG_OF_PERICENTER": 264.6764, "MEAN_ANOMALY": 268.9707, "EPHEMERIS_TYPE": 0, "CLASSIFICATION_TYPE": "U", "NORAD_CAT_ID": 36519, "ELEMENT_SET_NO": 999, "REV_AT_EPOCH": 78348, "BSTAR": 3.9819e-05, "MEAN_MOTION_DOT": 5.1e-07, "MEAN_MOTION_DDOT": 0}, "tle": {"line1": "1 36519U 10017A   25354.86129471  .00000051  00000+0  39819-4 0  9999", "line2": "2 36519  82.9604  20.7441 0034745 264.6764 268.9707 13.71649799783486"}}, "geometry": {"type": "Point", "coordinates": [-151.2290025146318, -49.267006608682706]}}]}